FENGYUN 1C DEB          
1 36645U 99025DXP 17345.91311757  .00000823  00000-0  10041-2 0  9994
2 36645  98.5052 142.9392 0317701  46.5019 316.2064 13.48868221180597
